BEIDOU-3 M15 (C34)      
1 43648U 18078B   25331.25642586 -.00000041  00000+0  00000+0 0  9995
2 43648  54.2721 307.0637 0003494  16.4004 343.6115  1.86232135 48410
BEIDOU-3 G1 (C59)       
1 43683U 18085A   25332.60697203 -.00000257  00000+0  00000+0 0  9997
2 43683   2.5692 103.4187 0001615  56.2445 266.5866  1.00265618 26043
BEIDOU-3 M17 (C36)      
1 43706U 18093A   25333.22582810  .00000101  00000+0  00000+0 0  9995
2 43706  54.1728 189.0811 0006395 306.0402 188.2123  1.86228229 47810
BEIDOU-3 M18 (C37)      
1 43707U 18093B   25332.88701387  .00000097  00000+0  00000+0 0  9993
2 43707  54.1734 189.0845 0006391 350.4980   9.5767  1.86226504 47807
BEIDOU-3 IGSO-1 (C38)   
1 44204U 19023A   25323.59378135 -.00000226  00000+0  00000+0 0  9994
2 44204  58.4003  39.8168 0026966 221.2202 126.9723  1.00252177  5102
BEIDOU-2 G8 (C01)       
1 44231U 19027A   25333.82072941 -.00000225  00000+0  00000+0 0  9990
2 44231   1.6262  74.6838 0008064 255.8945 178.4288  1.00271583 24084
BEIDOU-3 IGSO-2 (C39)   
1 44337U 19035A   25332.72947645 -.00000040  00000+0  00000+0 0  9991
2 44337  55.2218 160.6256 0037597 202.0980  87.3007  1.00275421 23657
BEIDOU-3 M24 (C46)      
1 44542U 19061A   25330.81044059  .00000077  00000+0  00000+0 0  9992
2 44542  54.4001 189.5541 0009539  22.7789 337.3497  1.86229332 42029
