{
  "type": "FeatureCollection",
  "features": [
    {
      "type": "Feature",
      "properties": {
        "OBJECT_NAME": "BEIDOU-3 M15 (C34)",
        "OBJECT_ID": "2018-078B",
        "EPOCH": "2025-11-27T06:09:15.194304",
        "MEAN_MOTION": 1.86232135,
        "ECCENTRICITY": 0.00034943,
        "INCLINATION": 54.2721,
        "RA_OF_ASC_NODE": 307.0637,
        "ARG_OF_PERICENTER": 16.4004,
        "MEAN_ANOMALY": 343.6115,
        "EPHEMERIS_TYPE": 0,
        "CLASSIFICATION_TYPE": "U",
        "NORAD_CAT_ID": 43648,
        "ELEMENT_SET_NO": 999,
        "REV_AT_EPOCH": 4841,
        "BSTAR": 0,
        "MEAN_MOTION_DOT": -4.1e-07,
        "MEAN_MOTION_DDOT": 0,
        "norad_id": 43648,
        "name": "BEIDOU-3 M15 (C34)",
        "group": "beidou",
        "longitude_deg": NaN,
        "latitude_deg": NaN,
        "alt_km": NaN,
        "orbit_class": "HEO",
        "timestamp": "2025-11-30T06:54:03.079689+00:00"
      },
      "geometry": {
        "type": "Point",
        "coordinates": [
          NaN,
          NaN
        ]
      }
    },
    {
      "type": "Feature",
      "properties": {
        "OBJECT_NAME": "BEIDOU-3 G1 (C59)",
        "OBJECT_ID": "2018-085A",
        "EPOCH": "2025-11-28T14:34:02.383392",
        "MEAN_MOTION": 1.00265618,
        "ECCENTRICITY": 0.00016155,
        "INCLINATION": 2.5692,
        "RA_OF_ASC_NODE": 103.4187,
        "ARG_OF_PERICENTER": 56.2445,
        "MEAN_ANOMALY": 266.5866,
        "EPHEMERIS_TYPE": 0,
        "CLASSIFICATION_TYPE": "U",
        "NORAD_CAT_ID": 43683,
        "ELEMENT_SET_NO": 999,
        "REV_AT_EPOCH": 2604,
        "BSTAR": 0,
        "MEAN_MOTION_DOT": -2.57e-06,
        "MEAN_MOTION_DDOT": 0,
        "norad_id": 43683,
        "name": "BEIDOU-3 G1 (C59)",
        "group": "beidou",
        "longitude_deg": NaN,
        "latitude_deg": NaN,
        "alt_km": NaN,
        "orbit_class": "HEO",
        "timestamp": "2025-11-30T06:54:03.079753+00:00"
      },
      "geometry": {
        "type": "Point",
        "coordinates": [
          NaN,
          NaN
        ]
      }
    },
    {
      "type": "Feature",
      "properties": {
        "OBJECT_NAME": "BEIDOU-3 M17 (C36)",
        "OBJECT_ID": "2018-093A",
        "EPOCH": "2025-11-29T05:25:11.547840",
        "MEAN_MOTION": 1.86228229,
        "ECCENTRICITY": 0.00063955,
        "INCLINATION": 54.1728,
        "RA_OF_ASC_NODE": 189.0811,
        "ARG_OF_PERICENTER": 306.0402,
        "MEAN_ANOMALY": 188.2123,
        "EPHEMERIS_TYPE": 0,
        "CLASSIFICATION_TYPE": "U",
        "NORAD_CAT_ID": 43706,
        "ELEMENT_SET_NO": 999,
        "REV_AT_EPOCH": 4781,
        "BSTAR": 0,
        "MEAN_MOTION_DOT": 1.01e-06,
        "MEAN_MOTION_DDOT": 0,
        "norad_id": 43706,
        "name": "BEIDOU-3 M17 (C36)",
        "group": "beidou",
        "longitude_deg": NaN,
        "latitude_deg": NaN,
        "alt_km": NaN,
        "orbit_class": "HEO",
        "timestamp": "2025-11-30T06:54:03.079785+00:00"
      },
      "geometry": {
        "type": "Point",
        "coordinates": [
          NaN,
          NaN
        ]
      }
    },
    {
      "type": "Feature",
      "properties": {
        "OBJECT_NAME": "BEIDOU-3 M18 (C37)",
        "OBJECT_ID": "2018-093B",
        "EPOCH": "2025-11-28T21:17:17.998368",
        "MEAN_MOTION": 1.86226504,
        "ECCENTRICITY": 0.00063913,
        "INCLINATION": 54.1734,
        "RA_OF_ASC_NODE": 189.0845,
        "ARG_OF_PERICENTER": 350.498,
        "MEAN_ANOMALY": 9.5767,
        "EPHEMERIS_TYPE": 0,
        "CLASSIFICATION_TYPE": "U",
        "NORAD_CAT_ID": 43707,
        "ELEMENT_SET_NO": 999,
        "REV_AT_EPOCH": 4780,
        "BSTAR": 0,
        "MEAN_MOTION_DOT": 9.7e-07,
        "MEAN_MOTION_DDOT": 0,
        "norad_id": 43707,
        "name": "BEIDOU-3 M18 (C37)",
        "group": "beidou",
        "longitude_deg": NaN,
        "latitude_deg": NaN,
        "alt_km": NaN,
        "orbit_class": "HEO",
        "timestamp": "2025-11-30T06:54:03.079792+00:00"
      },
      "geometry": {
        "type": "Point",
        "coordinates": [
          NaN,
          NaN
        ]
      }
    },
    {
      "type": "Feature",
      "properties": {
        "OBJECT_NAME": "BEIDOU-3 IGSO-1 (C38)",
        "OBJECT_ID": "2019-023A",
        "EPOCH": "2025-11-19T14:15:02.708640",
        "MEAN_MOTION": 1.00252177,
        "ECCENTRICITY": 0.0026966,
        "INCLINATION": 58.4003,
        "RA_OF_ASC_NODE": 39.8168,
        "ARG_OF_PERICENTER": 221.2202,
        "MEAN_ANOMALY": 126.9723,
        "EPHEMERIS_TYPE": 0,
        "CLASSIFICATION_TYPE": "U",
        "NORAD_CAT_ID": 44204,
        "ELEMENT_SET_NO": 999,
        "REV_AT_EPOCH": 510,
        "BSTAR": 0,
        "MEAN_MOTION_DOT": -2.26e-06,
        "MEAN_MOTION_DDOT": 0,
        "norad_id": 44204,
        "name": "BEIDOU-3 IGSO-1 (C38)",
        "group": "beidou",
        "longitude_deg": NaN,
        "latitude_deg": NaN,
        "alt_km": NaN,
        "orbit_class": "HEO",
        "timestamp": "2025-11-30T06:54:03.080429+00:00"
      },
      "geometry": {
        "type": "Point",
        "coordinates": [
          NaN,
          NaN
        ]
      }
    },
    {
      "type": "Feature",
      "properties": {
        "OBJECT_NAME": "BEIDOU-2 G8 (C01)",
        "OBJECT_ID": "2019-027A",
        "EPOCH": "2025-11-29T19:41:51.021024",
        "MEAN_MOTION": 1.00271583,
        "ECCENTRICITY": 0.0008064,
        "INCLINATION": 1.6262,
        "RA_OF_ASC_NODE": 74.6838,
        "ARG_OF_PERICENTER": 255.8945,
        "MEAN_ANOMALY": 178.4288,
        "EPHEMERIS_TYPE": 0,
        "CLASSIFICATION_TYPE": "U",
        "NORAD_CAT_ID": 44231,
        "ELEMENT_SET_NO": 999,
        "REV_AT_EPOCH": 2408,
        "BSTAR": 0,
        "MEAN_MOTION_DOT": -2.25e-06,
        "MEAN_MOTION_DDOT": 0,
        "norad_id": 44231,
        "name": "BEIDOU-2 G8 (C01)",
        "group": "beidou",
        "longitude_deg": NaN,
        "latitude_deg": NaN,
        "alt_km": NaN,
        "orbit_class": "HEO",
        "timestamp": "2025-11-30T06:54:03.080448+00:00"
      },
      "geometry": {
        "type": "Point",
        "coordinates": [
          NaN,
          NaN
        ]
      }
    },
    {
      "type": "Feature",
      "properties": {
        "OBJECT_NAME": "BEIDOU-3 IGSO-2 (C39)",
        "OBJECT_ID": "2019-035A",
        "EPOCH": "2025-11-28T17:30:26.765280",
        "MEAN_MOTION": 1.00275421,
        "ECCENTRICITY": 0.00375973,
        "INCLINATION": 55.2218,
        "RA_OF_ASC_NODE": 160.6256,
        "ARG_OF_PERICENTER": 202.098,
        "MEAN_ANOMALY": 87.3007,
        "EPHEMERIS_TYPE": 0,
        "CLASSIFICATION_TYPE": "U",
        "NORAD_CAT_ID": 44337,
        "ELEMENT_SET_NO": 999,
        "REV_AT_EPOCH": 2365,
        "BSTAR": 0,
        "MEAN_MOTION_DOT": -4e-07,
        "MEAN_MOTION_DDOT": 0,
        "norad_id": 44337,
        "name": "BEIDOU-3 IGSO-2 (C39)",
        "group": "beidou",
        "longitude_deg": NaN,
        "latitude_deg": NaN,
        "alt_km": NaN,
        "orbit_class": "HEO",
        "timestamp": "2025-11-30T06:54:03.080525+00:00"
      },
      "geometry": {
        "type": "Point",
        "coordinates": [
          NaN,
          NaN
        ]
      }
    },
    {
      "type": "Feature",
      "properties": {
        "OBJECT_NAME": "BEIDOU-3 M24 (C46)",
        "OBJECT_ID": "2019-061A",
        "EPOCH": "2025-11-26T19:27:02.066976",
        "MEAN_MOTION": 1.86229332,
        "ECCENTRICITY": 0.00095394,
        "INCLINATION": 54.4001,
        "RA_OF_ASC_NODE": 189.5541,
        "ARG_OF_PERICENTER": 22.7789,
        "MEAN_ANOMALY": 337.3497,
        "EPHEMERIS_TYPE": 0,
        "CLASSIFICATION_TYPE": "U",
        "NORAD_CAT_ID": 44542,
        "ELEMENT_SET_NO": 999,
        "REV_AT_EPOCH": 4202,
        "BSTAR": 0,
        "MEAN_MOTION_DOT": 7.7e-07,
        "MEAN_MOTION_DDOT": 0,
        "norad_id": 44542,
        "name": "BEIDOU-3 M24 (C46)",
        "group": "beidou",
        "longitude_deg": NaN,
        "latitude_deg": NaN,
        "alt_km": NaN,
        "orbit_class": "HEO",
        "timestamp": "2025-11-30T06:54:03.080743+00:00"
      },
      "geometry": {
        "type": "Point",
        "coordinates": [
          NaN,
          NaN
        ]
      }
    }
  ]
}